NORAD_CAT_ID,OBJECT_NAME,OBJECT_TYPE,EPOCH,MEAN_MOTION,ECCENTRICITY,INCLINATION,RA_OF_ASC_NODE,ARG_OF_PERICENTER,MEAN_ANOMALY,BSTAR,MEAN_MOTION_DOT,MEAN_MOTION_DDOT,TLE_LINE0,TLE_LINE1,TLE_LINE2,SEMIMAJOR_AXIS,PERIOD,APOGEE,PERIGEE,DECAYED
51111.0,STARLINK-3173,PAYLOAD,2023-06-10 03:21:25,15.08841191,0.0001288,53.2168,114.2308,61.4081,298.7041,7.4172e-05,8.93e-06,0.0,0 STARLINK-3173,1 51111U 22005H   23161.13987874  .00000893  00000-0  74172-4 0  9993,2 51111  53.2168 114.2308 0001288  61.4081 298.7041 15.08841191 78480,6917.877,95.437,540.633,538.851,0.0
51111.0,STARLINK-3173,PAYLOAD,2023-06-10 06:32:11,15.08840675,0.0001166,53.2155,113.6345,75.5112,284.6009,7.9633e-05,9.8e-06,0.0,0 STARLINK-3173,1 51111U 22005H   23161.27235831  .00000980  00000-0  79633-4 0  9991,2 51111  53.2155 113.6345 0001166  75.5112 284.6009 15.08840675 77399,6917.878,95.438,540.55,538.937,0.0
51111.0,STARLINK-3173,PAYLOAD,2023-06-11 03:12:13,15.08834751,0.0001034,53.2144,109.7685,76.6683,283.4425,1.4462e-06,-2.65e-06,0.0,0 STARLINK-3173,1 51111U 22005H   23162.13348561 -.00000265  00000-0  14462-5 0  9999,2 51111  53.2144 109.7685 0001034  76.6683 283.4425 15.08834751 78634,6917.896,95.438,540.477,539.046,0.0
51111.0,STARLINK-3173,PAYLOAD,2023-06-11 06:22:59,15.08838107,0.0001202,53.2169,109.1722,89.2476,270.8654,2.3098e-05,8e-07,0.0,0 STARLINK-3173,1 51111U 22005H   23162.26596321  .00000080  00000-0  23098-4 0  9990,2 51111  53.2169 109.1722 0001202  89.2476 270.8654 15.08838107 77546,6917.886,95.438,540.583,538.92,0.0
51111.0,STARLINK-3173,PAYLOAD,2023-06-11 20:41:27,15.08841371,0.0001336,53.2167,106.4961,87.1289,272.9856,2.5147e-05,1.12e-06,0.0,0 STARLINK-3173,1 51111U 22005H   23162.86212195  .00000112  00000-0  25147-4 0  9993,2 51111  53.2167 106.4961 0001336  87.1289 272.9856 15.08841371 77630,6917.876,95.437,540.665,538.817,0.0
51111.0,STARLINK-3173,PAYLOAD,2023-06-12 03:02:59,15.08846673,0.0001337,53.2165,105.3067,86.7921,273.3225,6.8574e-05,8.04e-06,0.0,0 STARLINK-3173,1 51111U 22005H   23163.12707675  .00000804  00000-0  68574-4 0  9994,2 51111  53.2165 105.3067 0001337  86.7921 273.3225 15.08846673 78784,6917.86,95.437,540.65,538.8,0.0
51111.0,STARLINK-3173,PAYLOAD,2023-06-12 12:35:18,15.08838628,0.0001151,53.2161,103.5198,82.5154,277.5969,5.7037e-05,6.2e-06,0.0,0 STARLINK-3173,1 51111U 22005H   23163.52452135  .00000620  00000-0  57037-4 0  9994,2 51111  53.2161 103.5198 0001151  82.5154 277.5969 15.08838628 77737,6917.885,95.438,540.546,538.953,0.0
51111.0,STARLINK-3173,PAYLOAD,2023-06-13 02:53:47,15.08830866,0.0001241,53.2167,100.8442,76.5835,283.5295,-1.5102e-05,-5.28e-06,0.0,0 STARLINK-3173,1 51111U 22005H   23164.12069115 -.00000528  00000-0 -15102-4 0  9999,2 51111  53.2167 100.8442 0001241  76.5835 283.5295 15.08830866 78932,6917.908,95.438,540.632,538.915,0.0
51111.0,STARLINK-3173,PAYLOAD,2023-06-13 20:23:02,15.08836957,0.0001179,53.2171,97.577,92.2554,267.8573,-2.0342e-05,-6.12e-06,0.0,0 STARLINK-3173,1 51111U 22005H   23164.84933001 -.00000612  00000-0 -20342-4 0  9998,2 51111  53.2171  97.5770 0001179  92.2554 267.8573 15.08836957 77936,6917.89,95.438,540.57,538.939,0.0
51111.0,STARLINK-3173,PAYLOAD,2023-06-14 02:44:34,15.08840214,0.0001151,53.217,96.3877,92.8107,267.3017,1.1233e-05,-1.09e-06,0.0,0 STARLINK-3173,1 51111U 22005H   23165.11428725 -.00000109  00000-0  11233-4 0  9990,2 51111  53.2170  96.3877 0001151  92.8107 267.3017 15.08840214 79087,6917.88,95.438,540.541,538.948,0.0
51111.0,STARLINK-3173,PAYLOAD,2023-06-14 05:55:20,15.08842662,0.0001152,53.2171,95.7923,85.9494,274.163,4.7915e-05,4.75e-06,0.0,0 STARLINK-3173,1 51111U 22005H   23165.24676510  .00000475  00000-0  47915-4 0  9992,2 51111  53.2171  95.7923 0001152  85.9494 274.1630 15.08842662 77990,6917.872,95.437,540.534,538.94,0.0
51111.0,STARLINK-3173,PAYLOAD,2023-06-15 02:35:22,15.08833589,0.0001153,53.217,91.9264,92.5536,267.5588,2.6711e-05,1.37e-06,0.0,0 STARLINK-3173,1 51111U 22005H   23166.10789390  .00000137  00000-0  26711-4 0  9995,2 51111  53.2170  91.9264 0001153  92.5536 267.5588 15.08833589 79232,6917.9,95.438,540.563,538.967,0.0
51111.0,STARLINK-3173,PAYLOAD,2023-06-15 05:46:08,15.08835804,0.0001148,53.2168,91.3315,92.0438,268.0685,4.2419e-05,3.87e-06,0.0,0 STARLINK-3173,1 51111U 22005H   23166.24037241  .00000387  00000-0  42419-4 0  9991,2 51111  53.2168  91.3315 0001148  92.0438 268.0685 15.08835804 78145,6917.893,95.438,540.552,538.964,0.0
51111.0,STARLINK-3173,PAYLOAD,2023-06-15 18:29:13,15.08840995,0.000116,53.2172,88.9522,91.5136,268.5989,4.8585e-05,4.86e-06,0.0,0 STARLINK-3173,1 51111U 22005H   23166.77029040  .00000486  00000-0  48585-4 0  9997,2 51111  53.2172  88.9522 0001160  91.5136 268.5989 15.08840995 79336,6917.877,95.437,540.545,538.94,0.0
51111.0,STARLINK-3173,PAYLOAD,2023-06-16 04:01:30,15.08852962,0.0001225,53.2171,87.1681,89.2518,270.8615,0.00014213,1.976e-05,0.0,0 STARLINK-3173,1 51111U 22005H   23167.16771881  .00001976  00000-0  14213-3 0  9993,2 51111  53.2171  87.1681 0001225  89.2518 270.8615 15.08852962 79397,6917.841,95.437,540.553,538.858,0.0
51111.0,STARLINK-3173,PAYLOAD,2023-06-16 18:19:59,15.08843534,0.0001251,53.2171,84.4922,94.3393,265.7742,9.1903e-05,1.175e-05,0.0,0 STARLINK-3173,1 51111U 22005H   23167.76388379  .00001175  00000-0  91903-4 0  9998,2 51111  53.2171  84.4922 0001251  94.3393 265.7742 15.08843534 78378,6917.87,95.437,540.6,538.869,0.0
51111.0,STARLINK-3173,PAYLOAD,2023-06-17 00:41:31,15.08849658,0.0001336,53.2176,83.3033,83.7047,276.4097,8.7149e-05,1.1e-05,0.0,0 STARLINK-3173,1 51111U 22005H   23168.02883984  .00001100  00000-0  87149-4 0  9995,2 51111  53.2176  83.3033 0001336  83.7047 276.4097 15.08849658 79529,6917.851,95.437,540.64,538.792,0.0
51111.0,STARLINK-3173,PAYLOAD,2023-06-17 11:49:14,15.08834792,0.0001097,53.217,81.2212,94.8939,265.2179,-2.2359e-05,-6.44e-06,0.0,0 STARLINK-3173,1 51111U 22005H   23168.49252972 -.00000644  00000-0 -22359-4 0  9999,2 51111  53.2170  81.2212 0001097  94.8939 265.2179 15.08834792 78480,6917.896,95.438,540.52,539.002,0.0
51111.0,STARLINK-3173,PAYLOAD,2023-06-17 18:10:47,15.08832519,0.0001613,53.2172,80.032,97.3427,262.7749,-7.0409e-05,-1.408e-05,0.0,0 STARLINK-3173,1 51111U 22005H   23168.75749511 -.00001408  00000-0 -70409-4 0  9996,2 51111  53.2172  80.0320 0001613  97.3427 262.7749 15.08832519 79631,6917.903,95.438,540.884,538.652,0.0
51111.0,STARLINK-3173,PAYLOAD,2023-06-18 03:43:06,15.08833976,0.0001449,53.2175,78.2478,95.9919,264.1239,-0.00014313,-2.565e-05,0.0,0 STARLINK-3173,1 51111U 22005H   23169.15493784 -.00002565  00000-0 -14313-3 0  9995,2 51111  53.2175  78.2478 0001449  95.9919 264.1239 15.08833976 78585,6917.899,95.438,540.766,538.761,0.0
51111.0,STARLINK-3173,PAYLOAD,2023-06-19 03:33:52,15.08853302,0.0001267,53.2173,73.7873,90.9548,269.159,8.5893e-05,1.08e-05,0.0,0 STARLINK-3173,1 51111U 22005H   23170.14851965  .00001080  00000-0  85893-4 0  9996,2 51111  53.2173  73.7873 0001267  90.9548 269.1590 15.08853302 79843,6917.84,95.437,540.581,538.828,0.0
51111.0,STARLINK-3173,PAYLOAD,2023-06-20 03:24:40,15.08832633,0.000145,53.2182,69.325,107.8141,252.3009,0.00011447,1.534e-05,0.0,0 STARLINK-3173,1 51111U 22005H   23171.14213494  .00001534  00000-0  11447-3 0  9993,2 51111  53.2182  69.3250 0001450 107.8141 252.3009 15.08832633 79993,6917.903,95.438,540.771,538.765,0.0
51111.0,STARLINK-3173,PAYLOAD,2023-06-20 09:46:12,15.08836565,0.0001252,53.2183,68.1361,97.5285,262.585,0.00012929,1.77e-05,0.0,0 STARLINK-3173,1 51111U 22005H   23171.40709280  .00001770  00000-0  12929-3 0  9993,2 51111  53.2183  68.1361 0001252  97.5285 262.5850 15.08836565 78925,6917.891,95.438,540.622,538.89,0.0
51111.0,STARLINK-3173,PAYLOAD,2023-06-20 20:53:55,15.08779322,0.0001552,53.2191,66.0595,88.7353,271.3816,0.00076205,0.00011841,0.0,0 STARLINK-3173,1 51111U 22005H   23171.87078587  .00011841  00000-0  76205-3 0  9990,2 51111  53.2191  66.0595 0001552  88.7353 271.3816 15.08779322 78995,6918.066,95.441,541.005,538.857,0.0
51111.0,STARLINK-3173,PAYLOAD,2023-06-20 22:29:19,15.08782059,0.0001548,53.219,65.7622,89.1009,271.0161,0.00074629,0.0001159,0.0,0 STARLINK-3173,1 51111U 22005H   23171.93702629  .00011590  00000-0  74629-3 0  9997,2 51111  53.2190  65.7622 0001548  89.1009 271.0161 15.08782059 80117,6918.057,95.441,540.993,538.852,0.0
51111.0,STARLINK-3173,PAYLOAD,2023-06-21 09:36:59,15.08843872,0.0001256,53.2183,63.6778,98.5285,261.585,-1.3809e-05,-5.08e-06,0.0,0 STARLINK-3173,1 51111U 22005H   23172.40069226 -.00000508  00000-0 -13809-4 0  9992,2 51111  53.2183  63.6778 0001256  98.5285 261.5850 15.08843872 80181,6917.869,95.437,540.602,538.865,0.0
51111.0,STARLINK-3173,PAYLOAD,2023-06-21 19:09:19,15.08833457,0.0001192,53.2176,61.8958,105.9684,254.1439,-3.8211e-05,-8.96e-06,0.0,0 STARLINK-3173,1 51111U 22005H   23172.79814232 -.00000896  00000-0 -38211-4 0  9993,2 51111  53.2176  61.8958 0001192 105.9684 254.1439 15.08833457 79130,6917.9,95.438,540.59,538.941,0.0
51111.0,STARLINK-3173,PAYLOAD,2023-06-22 17:24:43,15.08833688,0.0001378,53.2175,57.7293,88.1633,271.9517,0.00010131,1.325e-05,0.0,0 STARLINK-3173,1 51111U 22005H   23173.72550093  .00001325  00000-0  10131-3 0  9995,2 51111  53.2175  57.7293 0001378  88.1633 271.9517 15.08833688 80386,6917.9,95.438,540.718,538.811,0.0
51111.0,STARLINK-3173,PAYLOAD,2023-06-22 23:46:15,15.08842046,0.0001267,53.2182,56.5401,90.1458,269.9679,0.00011533,1.548e-05,0.0,0 STARLINK-3173,1 51111U 22005H   23173.99045591  .00001548  00000-0  11533-3 0  9990,2 51111  53.2182  56.5401 0001267  90.1458 269.9679 15.08842046 80426,6917.874,95.437,540.616,538.863,0.0
51111.0,STARLINK-3173,PAYLOAD,2023-06-23 15:40:06,15.08837322,0.0001239,53.2189,53.5672,90.6094,269.504,0.00012142,1.645e-05,0.0,0 STARLINK-3173,1 51111U 22005H   23174.65285876  .00001645  00000-0  12142-3 0  9991,2 51111  53.2189  53.5672 0001239  90.6094 269.5040 15.08837322 80520,6917.889,95.438,540.611,538.896,0.0
